STARLINK-30327          
1 57707U 23129K   26068.51769668  .00007635  00000+0  29314-3 0  9995
2 57707  42.9974  85.9834 0023030  70.8320 289.5022 15.26626807140903
STARLINK-34589          
1 64747U 25144Z   26068.53308031  .00022324  00000+0  76354-3 0  9999
2 64747  53.1599 169.2247 0001155 144.3867 215.7211 15.30202003 39869
